COSMOS 2251 DEB         
1 35991U 93036AWH 17345.70314875  .00009873  00000-0  87049-3 0  9991
2 35991  73.9183 350.9362 0099053 345.3169  14.5139 14.92771062453830
